{"type": "FeatureCollection", "features": [ {"type": "Feature", "properties": {"norad_id": 44476, "name": "INTELSAT 39 (IS-39)", "group": "intelsat", "lat": -0.0059365775117175435, "lon": -119.73822506801719, "alt_km": 35787.24593237069, "timestamp": "2025-12-22T05:49:03.150639+00:00", "meta": {"OBJECT_NAME": "INTELSAT 39 (IS-39)", "OBJECT_ID": "2019-049B", "EPOCH": "2025-12-21T11:46:48.398880", "MEAN_MOTION": 1.00270807, "ECCENTRICITY": 0.0001101, "INCLINATION": 0.0011, "RA_OF_ASC_NODE": 79.4939, "ARG_OF_PERICENTER": 59.3805, "MEAN_ANOMALY": 190.0826, "EPHEMERIS_TYPE": 0, "CLASSIFICATION_TYPE": "U", "NORAD_CAT_ID": 44476, "ELEMENT_SET_NO": 999, "REV_AT_EPOCH": 2334, "BSTAR": 0, "MEAN_MOTION_DOT": 5.6e-07, "MEAN_MOTION_DDOT": 0}, "tle": {"line1": "1 44476U 19049B   25355.49083795  .00000056  00000+0  00000+0 0  9992", "line2": "2 44476   0.0011  79.4939 0001101  59.3805 190.0826  1.00270807 23346"}}, "geometry": {"type": "Point", "coordinates": [-119.73822506801719, -0.0059365775117175435]}}, {"type": "Feature", "properties": {"norad_id": 46114, "name": "GALAXY 30 (G-30)", "group": "intelsat", "lat": 0.03405718443972663, "lon": 53.32586328634247, "alt_km": 35793.623470711536, "timestamp": "2025-12-22T05:49:03.150651+00:00", "meta": {"OBJECT_NAME": "GALAXY 30 (G-30)", "OBJECT_ID": "2020-056C", "EPOCH": "2025-12-21T16:01:38.993952", "MEAN_MOTION": 1.00270015, "ECCENTRICITY": 0.0001993, "INCLINATION": 0.018, "RA_OF_ASC_NODE": 2.4578, "ARG_OF_PERICENTER": 263.7484, "MEAN_ANOMALY": 299.7012, "EPHEMERIS_TYPE": 0, "CLASSIFICATION_TYPE": "U", "NORAD_CAT_ID": 46114, "ELEMENT_SET_NO": 999, "REV_AT_EPOCH": 1951, "BSTAR": 0, "MEAN_MOTION_DOT": 5.9e-07, "MEAN_MOTION_DDOT": 0}, "tle": {"line1": "1 46114U 20056C   25355.66781243  .00000059  00000+0  00000+0 0  9998", "line2": "2 46114   0.0180   2.4578 0001993 263.7484 299.7012  1.00270015 19511"}}, "geometry": {"type": "Point", "coordinates": [53.32586328634247, 0.03405718443972663]}}, {"type": "Feature", "properties": {"norad_id": 54026, "name": "GALAXY 33 (G-33)", "group": "intelsat", "lat": 0.03108058407123924, "lon": 45.31228782162473, "alt_km": 35792.28643498978, "timestamp": "2025-12-22T05:49:03.150663+00:00", "meta": {"OBJECT_NAME": "GALAXY 33 (G-33)", "OBJECT_ID": "2022-128A", "EPOCH": "2025-12-21T15:59:24.209088", "MEAN_MOTION": 1.00269038, "ECCENTRICITY": 0.0001546, "INCLINATION": 0.0209, "RA_OF_ASC_NODE": 302.3469, "ARG_OF_PERICENTER": 315.8581, "MEAN_ANOMALY": 299.1305, "EPHEMERIS_TYPE": 0, "CLASSIFICATION_TYPE": "U", "NORAD_CAT_ID": 54026, "ELEMENT_SET_NO": 999, "REV_AT_EPOCH": 1196, "BSTAR": 0, "MEAN_MOTION_DOT": 1.02e-06, "MEAN_MOTION_DDOT": 0}, "tle": {"line1": "1 54026U 22128A   25355.66625242  .00000102  00000+0  00000+0 0  9996", "line2": "2 54026   0.0209 302.3469 0001546 315.8581 299.1305  1.00269038 11969"}}, "geometry": {"type": "Point", "coordinates": [45.31228782162473, 0.03108058407123924]}}, {"type": "Feature", "properties": {"norad_id": 54027, "name": "GALAXY 34 (G-34)", "group": "intelsat", "lat": 0.04227370198047121, "lon": 49.39508414495076, "alt_km": 35789.24683227183, "timestamp": "2025-12-22T05:49:03.150675+00:00", "meta": {"OBJECT_NAME": "GALAXY 34 (G-34)", "OBJECT_ID": "2022-128B", "EPOCH": "2025-12-21T16:00:31.601088", "MEAN_MOTION": 1.00279661, "ECCENTRICITY": 0.0001944, "INCLINATION": 0.0247, "RA_OF_ASC_NODE": 334.3869, "ARG_OF_PERICENTER": 303.8848, "MEAN_ANOMALY": 283.3991, "EPHEMERIS_TYPE": 0, "CLASSIFICATION_TYPE": "U", "NORAD_CAT_ID": 54027, "ELEMENT_SET_NO": 999, "REV_AT_EPOCH": 1213, "BSTAR": 0, "MEAN_MOTION_DOT": 0, "MEAN_MOTION_DDOT": 0}, "tle": {"line1": "1 54027U 22128B   25355.66703242  .00000000  00000+0  00000+0 0  9991", "line2": "2 54027   0.0247 334.3869 0001944 303.8848 283.3991  1.00279661 12135"}}, "geometry": {"type": "Point", "coordinates": [49.39508414495076, 0.04227370198047121]}}, {"type": "Feature", "properties": {"norad_id": 54243, "name": "GALAXY 31 (G-31)", "group": "intelsat", "lat": 0.0045917186578962235, "lon": 57.31510432256503, "alt_km": 35790.53254156282, "timestamp": "2025-12-22T05:49:03.150686+00:00", "meta": {"OBJECT_NAME": "GALAXY 31 (G-31)", "OBJECT_ID": "2022-153A", "EPOCH": "2025-12-21T07:29:09.697056", "MEAN_MOTION": 1.00271234, "ECCENTRICITY": 0.00013856, "INCLINATION": 0.0226, "RA_OF_ASC_NODE": 88.887, "ARG_OF_PERICENTER": 190.6923, "MEAN_ANOMALY": 161.8441, "EPHEMERIS_TYPE": 0, "CLASSIFICATION_TYPE": "U", "NORAD_CAT_ID": 54243, "ELEMENT_SET_NO": 999, "REV_AT_EPOCH": 534, "BSTAR": 0, "MEAN_MOTION_DOT": 3.6e-07, "MEAN_MOTION_DDOT": 0}, "tle": {"line1": "1 54243U 22153A   25355.31191779  .00000036  00000+0  00000+0 0  9996", "line2": "2 54243   0.0226  88.8870 0001385 190.6923 161.8441  1.00271234  5343"}}, "geometry": {"type": "Point", "coordinates": [57.31510432256503, 0.0045917186578962235]}}, {"type": "Feature", "properties": {"norad_id": 54244, "name": "GALAXY 32 (G-32)", "group": "intelsat", "lat": 0.03296910998999802, "lon": 87.32156400796458, "alt_km": 35791.48713331706, "timestamp": "2025-12-22T05:49:03.150698+00:00", "meta": {"OBJECT_NAME": "GALAXY 32 (G-32)", "OBJECT_ID": "2022-153B", "EPOCH": "2025-12-21T04:12:15.832800", "MEAN_MOTION": 1.00270554, "ECCENTRICITY": 0.0001949, "INCLINATION": 0.0108, "RA_OF_ASC_NODE": 337.5471, "ARG_OF_PERICENTER": 342.4382, "MEAN_ANOMALY": 102.082, "EPHEMERIS_TYPE": 0, "CLASSIFICATION_TYPE": "U", "NORAD_CAT_ID": 54244, "ELEMENT_SET_NO": 999, "REV_AT_EPOCH": 1135, "BSTAR": 0, "MEAN_MOTION_DOT": -1.51e-06, "MEAN_MOTION_DDOT": 0}, "tle": {"line1": "1 54244U 22153B   25355.17518325 -.00000151  00000+0  00000+0 0  9990", "line2": "2 54244   0.0108 337.5471 0001949 342.4382 102.0820  1.00270554 11356"}}, "geometry": {"type": "Point", "coordinates": [87.32156400796458, 0.03296910998999802]}}, {"type": "Feature", "properties": {"norad_id": 54741, "name": "GALAXY 35 (G-35)", "group": "intelsat", "lat": 0.01944956515384336, "lon": 85.21759779896693, "alt_km": 35795.16276997211, "timestamp": "2025-12-22T05:49:03.150710+00:00", "meta": {"OBJECT_NAME": "GALAXY 35 (G-35)", "OBJECT_ID": "2022-170A", "EPOCH": "2025-12-21T14:28:02.956800", "MEAN_MOTION": 1.00271947, "ECCENTRICITY": 0.0002168, "INCLINATION": 0.0152, "RA_OF_ASC_NODE": 71.9497, "ARG_OF_PERICENTER": 201.2574, "MEAN_ANOMALY": 301.133, "EPHEMERIS_TYPE": 0, "CLASSIFICATION_TYPE": "U", "NORAD_CAT_ID": 54741, "ELEMENT_SET_NO": 999, "REV_AT_EPOCH": 1111, "BSTAR": 0, "MEAN_MOTION_DOT": -1.4e-06, "MEAN_MOTION_DDOT": 0}, "tle": {"line1": "1 54741U 22170A   25355.60281200 -.00000140  00000+0  00000+0 0  9996", "line2": "2 54741   0.0152  71.9497 0002168 201.2574 301.1330  1.00271947 11112"}}, "geometry": {"type": "Point", "coordinates": [85.21759779896693, 0.01944956515384336]}}, {"type": "Feature", "properties": {"norad_id": 54742, "name": "GALAXY 36 (G-36)", "group": "intelsat", "lat": 0.035621397814552105, "lon": 89.30017095400436, "alt_km": 35787.2523964417, "timestamp": "2025-12-22T05:49:03.150721+00:00", "meta": {"OBJECT_NAME": "GALAXY 36 (G-36)", "OBJECT_ID": "2022-170B", "EPOCH": "2025-12-21T14:29:10.348800", "MEAN_MOTION": 1.00269012, "ECCENTRICITY": 4.22e-05, "INCLINATION": 0.0152, "RA_OF_ASC_NODE": 34.6943, "ARG_OF_PERICENTER": 312.9933, "MEAN_ANOMALY": 231.0222, "EPHEMERIS_TYPE": 0, "CLASSIFICATION_TYPE": "U", "NORAD_CAT_ID": 54742, "ELEMENT_SET_NO": 999, "REV_AT_EPOCH": 1099, "BSTAR": 0, "MEAN_MOTION_DOT": 0, "MEAN_MOTION_DDOT": 0}, "tle": {"line1": "1 54742U 22170B   25355.60359200  .00000000  00000+0  00000+0 0  9997", "line2": "2 54742   0.0152  34.6943 0000422 312.9933 231.0222  1.00269012 10991"}}, "geometry": {"type": "Point", "coordinates": [89.30017095400436, 0.035621397814552105]}}, {"type": "Feature", "properties": {"norad_id": 57493, "name": "GALAXY 37 (G-37)", "group": "intelsat", "lat": 0.02163160855870641, "lon": 51.31300381056486, "alt_km": 35792.253880539014, "timestamp": "2025-12-22T05:49:03.150733+00:00", "meta": {"OBJECT_NAME": "GALAXY 37 (G-37)", "OBJECT_ID": "2023-112A", "EPOCH": "2025-12-21T16:01:01.554240", "MEAN_MOTION": 1.00271124, "ECCENTRICITY": 0.0001946, "INCLINATION": 0.0098, "RA_OF_ASC_NODE": 20.8093, "ARG_OF_PERICENTER": 253.5236, "MEAN_ANOMALY": 289.4001, "EPHEMERIS_TYPE": 0, "CLASSIFICATION_TYPE": "U", "NORAD_CAT_ID": 57493, "ELEMENT_SET_NO": 999, "REV_AT_EPOCH": 876, "BSTAR": 0, "MEAN_MOTION_DOT": 7.1e-07, "MEAN_MOTION_DDOT": 0}, "tle": {"line1": "1 57493U 23112A   25355.66737910  .00000071  00000+0  00000+0 0  9992", "line2": "2 57493   0.0098  20.8093 0001946 253.5236 289.4001  1.00271124  8768"}}, "geometry": {"type": "Point", "coordinates": [51.31300381056486, 0.02163160855870641]}}]}